0 COSMOS 1275 DEB
1 12733U 81053CA  13283.37549487  .00002153  00000-0  11372-2 0  4797
2 12733 082.8715 056.2010 0027315 163.8828 225.3080 14.13243003638500
0 COSMOS 1275 DEB
1 12733U 81053CA  13285.87301941  .00002559  00000-0  13530-2 0  4816
2 12733 082.8709 054.2090 0027413 156.4341 331.9635 14.13251621638859
0 COSMOS 1275 DEB
1 12733U 81053CA  13287.41862961  .00002838  00000-0  15012-2 0  4820
2 12733 082.8712 052.9759 0027518 151.9734 275.4650 14.13258196639070
0 COSMOS 1275 DEB
1 12733U 81053CA  13289.32280116  .00003180  00000-0  16830-2 0  4839
2 12733 082.8721 051.4569 0027569 146.4422 243.2976 14.13271708639340
0 COSMOS 1275 DEB
1 12733U 81053CA  13291.38306815  .00003095  00000-0  16374-2 0  4842
2 12733 082.8728 049.8135 0027669 140.4393 285.4069 14.13283819639638
0 COSMOS 1275 DEB
1 12733U 81053CA  13292.81671854  .00003216  00000-0  17013-2 0  4856
2 12733 082.8728 048.6703 0027633 136.4510 019.3177 14.13291687639831
0 COSMOS 1275 DEB
1 12733U 81053CA  13294.35429157  .00003557  00000-0  18821-2 0  4861
2 12733 082.8727 047.4438 0027557 132.2589 281.9129 14.13300397640056
0 COSMOS 1275 DEB
1 12733U 81053CA  13295.78419971  .00003542  00000-0  18738-2 0  4874
2 12733 082.8726 046.3034 0027506 128.3130 356.8412 14.13309143640254
